[{"OBJECT_NAME":"VIASAT-2","OBJECT_ID":"2017-029A","EPOCH":"2026-03-05T01:41:06.120672","MEAN_MOTION":1.00271692,"ECCENTRICITY":5.707e-5,"INCLINATION":0.0216,"RA_OF_ASC_NODE":241.0889,"ARG_OF_PERICENTER":139.0997,"MEAN_ANOMALY":97.9902,"EPHEMERIS_TYPE":0,"CLASSIFICATION_TYPE":"U","NORAD_CAT_ID":42740,"ELEMENT_SET_NO":999,"REV_AT_EPOCH":3216,"BSTAR":0,"MEAN_MOTION_DOT":-2.74e-6,"MEAN_MOTION_DDOT":0},{"OBJECT_NAME":"EUTELSAT 172B","OBJECT_ID":"2017-029B","EPOCH":"2026-03-06T06:13:04.687392","MEAN_MOTION":1.0027269,"ECCENTRICITY":7.09e-6,"INCLINATION":0.0215,"RA_OF_ASC_NODE":149.3377,"ARG_OF_PERICENTER":237.4333,"MEAN_ANOMALY":42.4604,"EPHEMERIS_TYPE":0,"CLASSIFICATION_TYPE":"U","NORAD_CAT_ID":42741,"ELEMENT_SET_NO":999,"REV_AT_EPOCH":3270,"BSTAR":0,"MEAN_MOTION_DOT":-1.1e-7,"MEAN_MOTION_DDOT":0},{"OBJECT_NAME":"GSAT-19","OBJECT_ID":"2017-031A","EPOCH":"2026-03-06T05:50:38.914944","MEAN_MOTION":1.00273007,"ECCENTRICITY":0.00045975,"INCLINATION":0.0152,"RA_OF_ASC_NODE":112.997,"ARG_OF_PERICENTER":271.6694,"MEAN_ANOMALY":274.817,"EPHEMERIS_TYPE":0,"CLASSIFICATION_TYPE":"U","NORAD_CAT_ID":42747,"ELEMENT_SET_NO":999,"REV_AT_EPOCH":3211,"BSTAR":0,"MEAN_MOTION_DOT":1.2e-6,"MEAN_MOTION_DDOT":0},{"OBJECT_NAME":"ECHOSTAR 21","OBJECT_ID":"2017-032A","EPOCH":"2026-03-06T05:26:54.115008","MEAN_MOTION":1.00273216,"ECCENTRICITY":0.00026186,"INCLINATION":1.7927,"RA_OF_ASC_NODE":348.9522,"ARG_OF_PERICENTER":344.2849,"MEAN_ANOMALY":282.6766,"EPHEMERIS_TYPE":0,"CLASSIFICATION_TYPE":"U","NORAD_CAT_ID":42749,"ELEMENT_SET_NO":999,"REV_AT_EPOCH":3206,"BSTAR":0,"MEAN_MOTION_DOT":6.1e-7,"MEAN_MOTION_DDOT":0},{"OBJECT_NAME":"ZHONGXING-9A","OBJECT_ID":"2017-035A","EPOCH":"2026-03-06T00:48:05.850720","MEAN_MOTION":0.99783804,"ECCENTRICITY":0.00060595,"INCLINATION":4.7196,"RA_OF_ASC_NODE":76.509,"ARG_OF_PERICENTER":277.2003,"MEAN_ANOMALY":294.8657,"EPHEMERIS_TYPE":0,"CLASSIFICATION_TYPE":"U","NORAD_CAT_ID":42763,"ELEMENT_SET_NO":999,"REV_AT_EPOCH":3262,"BSTAR":0,"MEAN_MOTION_DOT":-3.04e-6,"MEAN_MOTION_DDOT":0},{"OBJECT_NAME":"BULGARIASAT-1","OBJECT_ID":"2017-038A","EPOCH":"2026-03-05T05:26:51.974016","MEAN_MOTION":1.00271539,"ECCENTRICITY":0.0003287,"INCLINATION":0.0411,"RA_OF_ASC_NODE":260.244,"ARG_OF_PERICENTER":111.8912,"MEAN_ANOMALY":234.4197,"EPHEMERIS_TYPE":0,"CLASSIFICATION_TYPE":"U","NORAD_CAT_ID":42801,"ELEMENT_SET_NO":999,"REV_AT_EPOCH":3179,"BSTAR":0,"MEAN_MOTION_DOT":2.0e-8,"MEAN_MOTION_DDOT":0},{"OBJECT_NAME":"HELLAS-SAT 3","OBJECT_ID":"2017-040A","EPOCH":"2026-03-06T05:26:26.562048","MEAN_MOTION":1.00269617,"ECCENTRICITY":0.00049911,"INCLINATION":0.0571,"RA_OF_ASC_NODE":33.3976,"ARG_OF_PERICENTER":325.1978,"MEAN_ANOMALY":285.9569,"EPHEMERIS_TYPE":0,"CLASSIFICATION_TYPE":"U","NORAD_CAT_ID":42814,"ELEMENT_SET_NO":999,"REV_AT_EPOCH":3177,"BSTAR":0,"MEAN_MOTION_DOT":1.47e-6,"MEAN_MOTION_DDOT":0},{"OBJECT_NAME":"GSAT-17","OBJECT_ID":"2017-040B","EPOCH":"2026-03-05T07:35:32.138016","MEAN_MOTION":1.0026984,"ECCENTRICITY":0.0004948,"INCLINATION":0.0381,"RA_OF_ASC_NODE":296.1388,"ARG_OF_PERICENTER":351.8585,"MEAN_ANOMALY":82.4276,"EPHEMERIS_TYPE":0,"CLASSIFICATION_TYPE":"U","NORAD_CAT_ID":42815,"ELEMENT_SET_NO":999,"REV_AT_EPOCH":3174,"BSTAR":0,"MEAN_MOTION_DOT":-2.66e-6,"MEAN_MOTION_DDOT":0},{"OBJECT_NAME":"INTELSAT 35E (IS-35E)","OBJECT_ID":"2017-041A","EPOCH":"2026-03-05T04:14:38.535360","MEAN_MOTION":1.0027089,"ECCENTRICITY":0.0002225,"INCLINATION":0.0257,"RA_OF_ASC_NODE":241.7413,"ARG_OF_PERICENTER":103.6087,"MEAN_ANOMALY":206.6952,"EPHEMERIS_TYPE":0,"CLASSIFICATION_TYPE":"U","NORAD_CAT_ID":42818,"ELEMENT_SET_NO":999,"REV_AT_EPOCH":3177,"BSTAR":0,"MEAN_MOTION_DOT":-2.47e-6,"MEAN_MOTION_DDOT":0},{"OBJECT_NAME":"COSMOS 2520","OBJECT_ID":"2017-046A","EPOCH":"2026-03-04T18:53:38.590080","MEAN_MOTION":1.00275063,"ECCENTRICITY":7.869e-5,"INCLINATION":0.0284,"RA_OF_ASC_NODE":103.8318,"ARG_OF_PERICENTER":15.3936,"MEAN_ANOMALY":11.7225,"EPHEMERIS_TYPE":0,"CLASSIFICATION_TYPE":"U","NORAD_CAT_ID":42907,"ELEMENT_SET_NO":999,"REV_AT_EPOCH":3135,"BSTAR":0,"MEAN_MOTION_DOT":1.26e-6,"MEAN_MOTION_DDOT":0},{"OBJECT_NAME":"TDRS 13","OBJECT_ID":"2017-047A","EPOCH":"2026-03-06T04:50:14.676000","MEAN_MOTION":1.00272313,"ECCENTRICITY":0.00104387,"INCLINATION":3.4298,"RA_OF_ASC_NODE":0.109,"ARG_OF_PERICENTER":98.7322,"MEAN_ANOMALY":126.1699,"EPHEMERIS_TYPE":0,"CLASSIFICATION_TYPE":"U","NORAD_CAT_ID":42915,"ELEMENT_SET_NO":999,"REV_AT_EPOCH":3131,"BSTAR":0,"MEAN_MOTION_DOT":-1.04e-6,"MEAN_MOTION_DDOT":0},{"OBJECT_NAME":"QZS-3 (MICHIBIKI-3)","OBJECT_ID":"2017-048A","EPOCH":"2026-03-06T05:46:38.659872","MEAN_MOTION":1.00275459,"ECCENTRICITY":0.00022867,"INCLINATION":0.0688,"RA_OF_ASC_NODE":213.6075,"ARG_OF_PERICENTER":145.5938,"MEAN_ANOMALY":18.422,"EPHEMERIS_TYPE":0,"CLASSIFICATION_TYPE":"U","NORAD_CAT_ID":42917,"ELEMENT_SET_NO":999,"REV_AT_EPOCH":3122,"BSTAR":0,"MEAN_MOTION_DOT":-3.53e-6,"MEAN_MOTION_DDOT":0},{"OBJECT_NAME":"AMAZONAS 5","OBJECT_ID":"2017-053A","EPOCH":"2026-03-04T03:36:38.720160","MEAN_MOTION":1.00267618,"ECCENTRICITY":0.00054213,"INCLINATION":0.0068,"RA_OF_ASC_NODE":291.1162,"ARG_OF_PERICENTER":42.1232,"MEAN_ANOMALY":181.8425,"EPHEMERIS_TYPE":0,"CLASSIFICATION_TYPE":"U","NORAD_CAT_ID":42934,"ELEMENT_SET_NO":999,"REV_AT_EPOCH":3099,"BSTAR":0,"MEAN_MOTION_DOT":0,"MEAN_MOTION_DDOT":0},{"OBJECT_NAME":"ASIASAT 9","OBJECT_ID":"2017-057A","EPOCH":"2026-03-06T00:52:38.687232","MEAN_MOTION":1.00269276,"ECCENTRICITY":0.00020751,"INCLINATION":0.0126,"RA_OF_ASC_NODE":138.4043,"ARG_OF_PERICENTER":195.1154,"MEAN_ANOMALY":325.5022,"EPHEMERIS_TYPE":0,"CLASSIFICATION_TYPE":"U","NORAD_CAT_ID":42942,"ELEMENT_SET_NO":999,"REV_AT_EPOCH":3082,"BSTAR":0,"MEAN_MOTION_DOT":-3.65e-6,"MEAN_MOTION_DDOT":0},{"OBJECT_NAME":"INTELSAT 37E (IS-37E)","OBJECT_ID":"2017-059A","EPOCH":"2026-03-06T04:50:14.676000","MEAN_MOTION":1.0027168,"ECCENTRICITY":0.00021502,"INCLINATION":0.0201,"RA_OF_ASC_NODE":142.804,"ARG_OF_PERICENTER":206.2734,"MEAN_ANOMALY":229.3941,"EPHEMERIS_TYPE":0,"CLASSIFICATION_TYPE":"U","NORAD_CAT_ID":42950,"ELEMENT_SET_NO":999,"REV_AT_EPOCH":3103,"BSTAR":0,"MEAN_MOTION_DOT":-1.46e-6,"MEAN_MOTION_DDOT":0},{"OBJECT_NAME":"BSAT-4A","OBJECT_ID":"2017-059B","EPOCH":"2026-03-06T00:47:20.921856","MEAN_MOTION":1.00268651,"ECCENTRICITY":0.0004279,"INCLINATION":0.0161,"RA_OF_ASC_NODE":1.0556,"ARG_OF_PERICENTER":27.2131,"MEAN_ANOMALY":257.1965,"EPHEMERIS_TYPE":0,"CLASSIFICATION_TYPE":"U","NORAD_CAT_ID":42951,"ELEMENT_SET_NO":999,"REV_AT_EPOCH":3076,"BSTAR":0,"MEAN_MOTION_DOT":0,"MEAN_MOTION_DDOT":0},{"OBJECT_NAME":"SES-11 (ECHOSTAR 105)","OBJECT_ID":"2017-063A","EPOCH":"2026-03-05T04:56:24.893952","MEAN_MOTION":1.00272288,"ECCENTRICITY":0.0002895,"INCLINATION":0.0386,"RA_OF_ASC_NODE":71.4662,"ARG_OF_PERICENTER":270.8534,"MEAN_ANOMALY":149.7752,"EPHEMERIS_TYPE":0,"CLASSIFICATION_TYPE":"U","NORAD_CAT_ID":42967,"ELEMENT_SET_NO":999,"REV_AT_EPOCH":3068,"BSTAR":0,"MEAN_MOTION_DOT":-9.8e-7,"MEAN_MOTION_DDOT":0}]
